{
  "type": "FeatureCollection",
  "features": [
    {
      "type": "Feature",
      "properties": {
        "name": "OCBC seeded metro clusters",
        "note": "Twelve metro boxes as one MultiPolygon. Passed to `pmtiles extract --region` to cut public/basemap/asia-cities-z0-z12.pmtiles (plan 4.7). Regenerate with `npm run prep:basemap -- --clusters`.",
        "metros": [
          "Singapore",
          "Klang Valley",
          "Penang",
          "Johor Bahru",
          "Kota Kinabalu",
          "Jakarta and BSD",
          "Semarang",
          "Surabaya",
          "Shanghai and Ningbo",
          "Guangzhou and Shenzhen",
          "Xiamen",
          "Hong Kong"
        ]
      },
      "geometry": {
        "type": "MultiPolygon",
        "coordinates": [
          [
            [
              [
                103.55,
                1.09
              ],
              [
                104.05,
                1.09
              ],
              [
                104.05,
                1.59
              ],
              [
                103.55,
                1.59
              ],
              [
                103.55,
                1.09
              ]
            ]
          ],
          [
            [
              [
                101.35,
                2.73
              ],
              [
                101.85,
                2.73
              ],
              [
                101.85,
                3.23
              ],
              [
                101.35,
                3.23
              ],
              [
                101.35,
                2.73
              ]
            ]
          ],
          [
            [
              [
                100.08,
                5.16
              ],
              [
                100.58,
                5.16
              ],
              [
                100.58,
                5.66
              ],
              [
                100.08,
                5.66
              ],
              [
                100.08,
                5.16
              ]
            ]
          ],
          [
            [
              [
                103.48,
                1.22
              ],
              [
                103.98,
                1.22
              ],
              [
                103.98,
                1.72
              ],
              [
                103.48,
                1.72
              ],
              [
                103.48,
                1.22
              ]
            ]
          ],
          [
            [
              [
                115.82,
                5.73
              ],
              [
                116.32,
                5.73
              ],
              [
                116.32,
                6.23
              ],
              [
                115.82,
                6.23
              ],
              [
                115.82,
                5.73
              ]
            ]
          ],
          [
            [
              [
                106.49,
                -6.455
              ],
              [
                106.99,
                -6.455
              ],
              [
                106.99,
                -5.955
              ],
              [
                106.49,
                -5.955
              ],
              [
                106.49,
                -6.455
              ]
            ]
          ],
          [
            [
              [
                110.17,
                -7.22
              ],
              [
                110.67,
                -7.22
              ],
              [
                110.67,
                -6.72
              ],
              [
                110.17,
                -6.72
              ],
              [
                110.17,
                -7.22
              ]
            ]
          ],
          [
            [
              [
                112.5,
                -7.5
              ],
              [
                113,
                -7.5
              ],
              [
                113,
                -7
              ],
              [
                112.5,
                -7
              ],
              [
                112.5,
                -7.5
              ]
            ]
          ],
          [
            [
              [
                121.3,
                29.62
              ],
              [
                121.8,
                29.62
              ],
              [
                121.8,
                31.48
              ],
              [
                121.3,
                31.48
              ],
              [
                121.3,
                29.62
              ]
            ]
          ],
          [
            [
              [
                113.42,
                22.4
              ],
              [
                113.92,
                22.4
              ],
              [
                113.92,
                22.9
              ],
              [
                113.42,
                22.9
              ],
              [
                113.42,
                22.4
              ]
            ]
          ],
          [
            [
              [
                117.84,
                24.23
              ],
              [
                118.34,
                24.23
              ],
              [
                118.34,
                24.73
              ],
              [
                117.84,
                24.73
              ],
              [
                117.84,
                24.23
              ]
            ]
          ],
          [
            [
              [
                113.92,
                22.1
              ],
              [
                114.42,
                22.1
              ],
              [
                114.42,
                22.6
              ],
              [
                113.92,
                22.6
              ],
              [
                113.92,
                22.1
              ]
            ]
          ]
        ]
      }
    }
  ]
}
